NORAD_CAT_ID,OBJECT_NAME,OBJECT_TYPE,EPOCH,MEAN_MOTION,ECCENTRICITY,INCLINATION,RA_OF_ASC_NODE,ARG_OF_PERICENTER,MEAN_ANOMALY,BSTAR,MEAN_MOTION_DOT,MEAN_MOTION_DDOT,TLE_LINE0,TLE_LINE1,TLE_LINE2,SEMIMAJOR_AXIS,PERIOD,APOGEE,PERIGEE,DECAYED
53152.0,STARLINK-4045,PAYLOAD,2022-11-06 07:52:48,15.08835002,0.0002132,53.2153,238.038,45.2616,314.8549,-7.2837e-05,-1.447e-05,0.0,0 STARLINK-4045,1 53152U 22083W   22310.32834005 -.00001447  00000-0 -72837-4 0  9993,2 53152  53.2153 238.0380 0002132  45.2616 314.8549 15.08835002 17276,6917.896,95.438,541.236,538.286,0.0
53152.0,STARLINK-4045,PAYLOAD,2022-11-07 04:32:50,15.08831067,0.0002189,53.2144,234.1718,45.4109,314.7061,0.00033118,4.985e-05,0.0,0 STARLINK-4045,1 53152U 22083W   22311.18946894  .00004985  00000-0  33118-3 0  9994,2 53152  53.2144 234.1718 0002189  45.4109 314.7061 15.08831067 18039,6917.908,95.438,541.2869999999998,538.258,0.0
53152.0,STARLINK-4045,PAYLOAD,2022-11-08 05:58:59,15.08875362,0.0002223,53.2146,229.4138,42.9879,317.1287,0.0013949,0.00022003,0.0,0 STARLINK-4045,1 53152U 22083W   22312.24930263  .00022003  00000-0  13949-2 0  9995,2 53152  53.2146 229.4138 0002223  42.9879 317.1287 15.08875362 18199,6917.772,95.435,541.175,538.099,0.0
53152.0,STARLINK-4045,PAYLOAD,2022-11-09 02:38:59,15.08858018,0.0002157,53.2145,225.5477,39.4033,320.7116,-4.4904e-05,-1.003e-05,0.0,0 STARLINK-4045,1 53152U 22083W   22313.11040726 -.00001003  00000-0 -44904-4 0  9994,2 53152  53.2145 225.5477 0002157  39.4033 320.7116 15.08858018 18325,6917.825,95.436,541.182,538.198,0.0
53152.0,STARLINK-4045,PAYLOAD,2022-11-09 05:49:45,15.08854578,0.0002227,53.2146,224.9532,38.7474,321.3678,-0.0001641,-2.9e-05,0.0,0 STARLINK-4045,1 53152U 22083W   22313.24288634 -.00002900  00000-0 -16410-3 0  9997,2 53152  53.2146 224.9532 0002227  38.7474 321.3678 15.08854578 17719,6917.8359999999975,95.437,541.241,538.16,0.0
53152.0,STARLINK-4045,PAYLOAD,2022-11-09 21:43:36,15.088407,0.0001821,53.2149,221.9795,38.6533,321.4589,-0.00031086,-5.232e-05,0.0,0 STARLINK-4045,1 53152U 22083W   22313.90528724 -.00005232  00000-0 -31086-3 0  9994,2 53152  53.2149 221.9795 0001821  38.6533 321.4589 15.08840700 18449,6917.878000000002,95.438,541.003,538.484,0.0
53152.0,STARLINK-4045,PAYLOAD,2022-11-10 10:26:42,15.08827936,0.0001964,53.2144,219.6009,40.2296,319.8841,-0.00040719,-6.761e-05,0.0,0 STARLINK-4045,1 53152U 22083W   22314.43521664 -.00006761  00000-0 -40719-3 0  9990,2 53152  53.2144 219.6009 0001964  40.2296 319.8841 15.08827936 17895,6917.917,95.438,541.141,538.424,0.0
53152.0,STARLINK-4045,PAYLOAD,2022-11-10 16:48:15,15.08825404,0.0002552,53.214,218.4104,46.2683,313.8520000000001,-0.00030975,-5.213e-05,0.0,0 STARLINK-4045,1 53152U 22083W   22314.70018446 -.00005213  00000-0 -30975-3 0  9993,2 53152  53.2140 218.4104 0002552  46.2683 313.8520 15.08825404 18565,6917.925,95.438,541.555,538.025,0.0
53152.0,STARLINK-4045,PAYLOAD,2022-11-11 00:45:13,15.08813214,0.0001943,53.2157,216.9261,44.1363,315.9784,-0.00011897,-2.18e-05,0.0,0 STARLINK-4045,1 53152U 22083W   22315.03140189 -.00002180  00000-0 -11897-3 0  9992,2 53152  53.2157 216.9261 0001943  44.1363 315.9784 15.08813214 18612,6917.962,95.439,541.1709999999998,538.4830000000002,0.0
53152.0,STARLINK-4045,PAYLOAD,2022-11-11 21:25:13,15.08824106,0.000193,53.216,213.0604,42.9226,317.1916,0.00016916,2.404e-05,0.0,0 STARLINK-4045,1 53152U 22083W   22315.89251864  .00002404  00000-0  16916-3 0  9993,2 53152  53.2160 213.0604 0001930  42.9226 317.1916 15.08824106 18113,6917.929,95.439,541.129,538.4590000000002,0.0
53152.0,STARLINK-4045,PAYLOAD,2022-11-12 02:11:22,15.088336800000002,0.0002014,53.2151,212.1684,44.6642,315.4512,0.00033928,5.115e-05,0.0,0 STARLINK-4045,1 53152U 22083W   22316.09123798  .00005115  00000-0  33928-3 0  9994,2 53152  53.2151 212.1684 0002014  44.6642 315.4512 15.08833680 18778,6917.9,95.438,541.158,538.371,0.0
53152.0,STARLINK-4045,PAYLOAD,2022-11-12 11:43:41,15.08847809,0.000197,53.2146,210.3845,41.6385,318.4757,0.00060059,9.285e-05,0.0,0 STARLINK-4045,1 53152U 22083W   22316.48867323  .00009285  00000-0  60059-3 0  9993,2 53152  53.2146 210.3845 0001970  41.6385 318.4757 15.08847809 18831,6917.857,95.437,541.0840000000002,538.359,0.0
53152.0,STARLINK-4045,PAYLOAD,2022-11-12 21:15:59,15.08867543,0.000207,53.2138,208.5996,41.6214,318.4935,0.00080495,0.00012556,0.0,0 STARLINK-4045,1 53152U 22083W   22316.88610795  .00012556  00000-0  80495-3 0  9997,2 53152  53.2138 208.5996 0002070  41.6214 318.4935 15.08867543 18263,6917.795999999999,95.436,541.0930000000002,538.229,0.0
53152.0,STARLINK-4045,PAYLOAD,2022-11-13 09:59:04,15.08853411,0.000235,53.2133,206.2212,40.4804,319.6362,-4.9188e-05,-1.071e-05,0.0,0 STARLINK-4045,1 53152U 22083W   22317.41602593 -.00001071  00000-0 -49188-4 0  9991,2 53152  53.2133 206.2212 0002350  40.4804 319.6362 15.08853411 18971,6917.839,95.437,541.33,538.0790000000002,0.0
53152.0,STARLINK-4045,PAYLOAD,2022-11-13 17:56:00,15.08847449,0.0002883,53.2132,204.7348,50.3575,309.7671,0.00014016,1.943e-05,0.0,0 STARLINK-4045,1 53152U 22083W   22317.74722910  .00001943  00000-0  14016-3 0  9990,2 53152  53.2132 204.7348 0002883  50.3575 309.7671 15.08847449 18392,6917.858,95.437,541.717,537.7280000000002,0.0
53152.0,STARLINK-4045,PAYLOAD,2022-11-13 22:42:10,15.08826597,0.000197,53.2122,203.8391,37.5528,322.5602,-0.0002556,-4.352e-05,0.0,0 STARLINK-4045,1 53152U 22083W   22317.94595163 -.00004352  00000-0 -25560-3 0  9995,2 53152  53.2122 203.8391 0001970  37.5528 322.5602 15.08826597 19052,6917.920999999999,95.438,541.149,538.424,0.0
53152.0,STARLINK-4045,PAYLOAD,2022-11-14 09:49:52,15.08826964,0.0001985,53.2141,201.758,42.5921,317.5225,0.00045346,6.934e-05,0.0,0 STARLINK-4045,1 53152U 22083W   22318.40963824  .00006934  00000-0  45346-3 0  9990,2 53152  53.2141 201.7580 0001985  42.5921 317.5225 15.08826964 18499,6917.92,95.438,541.158,538.4119999999998,0.0
53152.0,STARLINK-4045,PAYLOAD,2022-11-15 01:43:44,15.0884166,0.0002296,53.2151,198.785,45.3603,314.7576,0.00035783,5.412e-05,0.0,0 STARLINK-4045,1 53152U 22083W   22319.07203819  .00005412  00000-0  35783-3 0  9999,2 53152  53.2151 198.7850 0002296  45.3603 314.7576 15.08841660 19229,6917.875,95.437,541.3290000000002,538.1519999999998,0.0
53152.0,STARLINK-4045,PAYLOAD,2022-11-15 09:40:39,15.08850812,0.0002308,53.2155,197.2986,42.7425,317.3747,0.00043048,6.572e-05,0.0,0 STARLINK-4045,1 53152U 22083W   22319.40323431  .00006572  00000-0  43048-3 0  9990,2 53152  53.2155 197.2986 0002308  42.7425 317.3747 15.08850812 18647,6917.847,95.437,541.309,538.116,0.0
53152.0,STARLINK-4045,PAYLOAD,2022-11-15 20:48:21,15.08840868,0.0002286,53.2157,195.2172,45.8165,314.3015,0.00025571,3.784e-05,0.0,0 STARLINK-4045,1 53152U 22083W   22319.86691888  .00003784  00000-0  25571-3 0  9997,2 53152  53.2157 195.2172 0002286  45.8165 314.3015 15.08840868 18717,6917.878000000002,95.437,541.3240000000002,538.161,0.0
53152.0,STARLINK-4045,PAYLOAD,2022-11-15 22:23:44,15.08842271,0.0002307,53.2157,194.9196,47.0811,313.0375,0.00029463,4.404e-05,0.0,0 STARLINK-4045,1 53152U 22083W   22319.93315863  .00004404  00000-0  29463-3 0  9995,2 53152  53.2157 194.9196 0002307  47.0811 313.0375 15.08842271 19351,6917.873000000001,95.437,541.3340000000002,538.1419999999998,0.0
53152.0,STARLINK-4045,PAYLOAD,2022-11-16 12:42:12,15.08855518,0.0002263,53.2154,192.2444,48.5068,311.6118,0.00029861,4.469e-05,0.0,0 STARLINK-4045,1 53152U 22083W   22320.52931011  .00004469  00000-0  29861-3 0  9994,2 53152  53.2154 192.2444 0002263  48.5068 311.6118 15.08855518 19443,6917.833000000001,95.437,541.263,538.132,0.0
53152.0,STARLINK-4045,PAYLOAD,2022-11-16 19:03:45,15.08843718,0.0002207,53.216,191.0532,47.2348,312.883,2.4679e-06,-2.49e-06,0.0,0 STARLINK-4045,1 53152U 22083W   22320.79427280 -.00000249  00000-0  24679-5 0  9998,2 53152  53.2160 191.0532 0002207  47.2348 312.8830 15.08843718 19487,6917.869000000002,95.437,541.261,538.207,0.0
53152.0,STARLINK-4045,PAYLOAD,2022-11-17 12:32:59,15.08850913,0.0002194,53.2158,187.7835,46.7366,313.3809,0.00019247,2.777e-05,0.0,0 STARLINK-4045,1 53152U 22083W   22321.52290765  .00002777  00000-0  19247-3 0  9996,2 53152  53.2158 187.7835 0002194  46.7366 313.3809 15.08850913 18960,6917.847,95.437,541.23,538.194,0.0
53152.0,STARLINK-4045,PAYLOAD,2022-11-17 17:19:08,15.0885527,0.0002302,53.2156,186.8919,44.4413,315.6763,0.00029895,4.475e-05,0.0,0 STARLINK-4045,1 53152U 22083W   22321.72162578  .00004475  00000-0  29895-3 0  9995,2 53152  53.2156 186.8919 0002302  44.4413 315.6763 15.08855270 19629,6917.834,95.437,541.2909999999998,538.106,0.0
53152.0,STARLINK-4045,PAYLOAD,2022-11-17 18:54:31,15.08856154,0.0002279,53.2156,186.5943,44.7022,315.4154,0.00030474,4.567e-05,0.0,0 STARLINK-4045,1 53152U 22083W   22321.78786470  .00004567  00000-0  30474-3 0  9991,2 53152  53.2156 186.5943 0002279  44.7022 315.4154 15.08856154 19001,6917.831,95.437,541.273,538.119,0.0
53152.0,STARLINK-4045,PAYLOAD,2022-11-18 10:48:23,15.08846691,0.000259,53.2155,183.6224,39.5974,320.5207,0.00014081,1.954e-05,0.0,0 STARLINK-4045,1 53152U 22083W   22322.45026714  .00001954  00000-0  14081-3 0  9997,2 53152  53.2155 183.6224 0002590  39.5974 320.5207 15.08846691 19735,6917.86,95.437,541.5169999999998,537.933,0.0
53152.0,STARLINK-4045,PAYLOAD,2022-11-18 17:09:55,15.08838588,0.0002015,53.2174,182.4304,29.879,330.2317,-5.8974e-05,-1.227e-05,0.0,0 STARLINK-4045,1 53152U 22083W   22322.71522689 -.00001227  00000-0 -58974-4 0  9993,2 53152  53.2174 182.4304 0002015  29.8790 330.2317 15.08838588 19143,6917.885,95.438,541.144,538.356,0.0
53152.0,STARLINK-4045,PAYLOAD,2022-11-19 01:06:52,15.08827233,0.0002315,53.2153,180.9441,44.5368,315.581,-0.00010244,-1.918e-05,0.0,0 STARLINK-4045,1 53152U 22083W   22323.04643695 -.00001918  00000-0 -10244-3 0  9995,2 53152  53.2153 180.9441 0002315  44.5368 315.5810 15.08827233 19827,6917.919,95.438,541.386,538.183,0.0
